# All asteroid colors (except for Dactyl) are derived from SMASS spectra
# and converted to RGB values using Askaniy's TrueColorTools utility:
# https://github.com/Askaniy/TrueColorTools

# Notable main-belt asteroids

"2 Pallas:Pallas" "Sol"
{
	Class	"asteroid"
	Mesh	"pallas.cmod"
	Texture	"asteroid.*"
	Color	[ 1.0 0.998 0.975 ]
	BlendTexture	true
	Radius	275
	EllipticalOrbit
	{
		Epoch	2459000.5  # 2020 May 31
		Period	4.619879508838
		SemiMajorAxis	2.773841433754
		Eccentricity	0.229972273669
		Inclination	34.832932232998
		AscendingNode	173.024741462928
		ArgOfPericenter	310.202391565385
		MeanAnomaly	144.975678021763
	}
	UniformRotation
	{
		Period	7.8132214
		Inclination	84
		AscendingNode	118
		MeridianAngle	339
	}
	LunarLambert	0.5
	GeomAlbedo	0.1587
	InfoURL	"https://en.wikipedia.org/wiki/2_Pallas"
}

"3 Juno:Juno" "Sol"
{
	Class	"asteroid"
	Mesh	"juno.cmod"
	Texture	"asteroid.*"
	Color	[ 1.0 0.974 0.931 ]
	BlendTexture	true
	Radius	160
	EllipticalOrbit
	{
		Epoch	2457000.5  # 2014 Dec 09
		Period	4.364614795847
		SemiMajorAxis	2.670700240558908
		Eccentricity	0.2554482627817375
		Inclination	12.98166179450518
		AscendingNode	169.8711811946533
		ArgOfPericenter	248.4099652667037
		MeanAnomaly	33.07715332505229
	}
	UniformRotation
	{
		Period	7.21
		Inclination	50
		AscendingNode	196
	}
	LunarLambert	0.5
	GeomAlbedo	0.2383
	InfoURL	"https://en.wikipedia.org/wiki/3_Juno"
}

"4 Vesta:Vesta" "Sol"
{
	Class	"asteroid"
	Mesh	"vesta.cmod"
	Texture	"vesta.*"
	Color	[ 1.0 0.983 0.941 ]
	Radius	286.3
	EllipticalOrbit
	{
		Epoch	2456171.5  # 2012 Sept 01
		Period	3.63288456954891
		SemiMajorAxis	2.363173444663091
		Eccentricity	0.08798159971386635
		Inclination	7.135687172609167
		AscendingNode	103.8677530538142
		ArgOfPericenter	150.4876611372123
		MeanAnomaly	156.5397505885364
	}
	UniformRotation
	{
		Epoch	2450124.90833  # 1996 Feb 11 09:48
		Period	5.34212766
		Inclination	40
		AscendingNode	91
		MeridianAngle	325.77
	}
	LunarLambert	0.5
	GeomAlbedo	0.4228
	InfoURL	"https://en.wikipedia.org/wiki/4_Vesta"
}

"7 Iris:Iris" "Sol"
{
	Class	"asteroid"
	Mesh	"iris.cmod"
	Texture	"asteroid.*"
	Color	[ 1.0 0.965 0.907 ]
	BlendTexture	true
	Radius	134
	EllipticalOrbit
	{
		Epoch	2458600.5  # 2019 Apr 27
		Period	3.684104574242
		SemiMajorAxis	2.385333813854
		Eccentricity	0.231205791651
		Inclination	5.523651386736
		AscendingNode	259.563230688972
		ArgOfPericenter	145.265105834918
		MeanAnomaly	140.419655564024
	}
	UniformRotation
	{
		Period	7.138843
		Inclination	85
		AscendingNode	110
	}
	LunarLambert	0.5
	GeomAlbedo	0.2766
	InfoURL	"https://en.wikipedia.org/wiki/7_Iris"
}

"10 Hygiea:Hygiea:A900 GA" "Sol"
{
	Class	"asteroid"
	Mesh	"hygiea.cmod"
	Texture	"asteroid.*"
	Color	[ 1.0 0.95 0.88 ]
	BlendTexture	true
	Radius	225
	EllipticalOrbit
	{
		Epoch	2458600.5  # 2019 Apr 27
		Period	5.568290989911
		SemiMajorAxis	3.141539179115
		Eccentricity	0.11246065767
		Inclination	3.831560034123
		AscendingNode	283.202166862734
		ArgOfPericenter	312.315206246552
		MeanAnomaly	152.184851207891
	}
	UniformRotation
	{
		Period	13.82559
		Inclination	60
		AscendingNode	205
	}
	LunarLambert	0.5
	GeomAlbedo	0.0717
	InfoURL	"https://en.wikipedia.org/wiki/10_Hygiea"
}

"16 Psyche:Psyche" "Sol"
{
	Class	"asteroid"
	Mesh	"psyche.cmod"
	Texture	"asteroid.*"
	Color	[ 1.0 0.977 0.935 ]
	BlendTexture	true
	Radius	139
	EllipticalOrbit
	{
		Epoch	2458600.5  # 2019 Apr 27
		Period	4.999571071781
		SemiMajorAxis	2.923813696198
		Eccentricity	0.133568462202
		Inclination	3.096005212498
		AscendingNode	150.045649627816
		ArgOfPericenter	228.823096764891
		MeanAnomaly	288.335877466938
	}
	UniformRotation
	{
		Period	4.195948
		Inclination	95
		AscendingNode	125
	}
	LunarLambert	0.5
	GeomAlbedo	0.37
	InfoURL	"https://en.wikipedia.org/wiki/16_Psyche"
}

"45 Eugenia:Eugenia:1941 BN" "Sol"
{
	Class	"asteroid"
	Mesh	"eugenia.cmod"
	Texture	"asteroid.*"
	Color	[ 1.0 0.995 0.981 ]
	BlendTexture	true
	Radius	152.5
	EllipticalOrbit
	{
		Epoch	2458000.5  # 2017 Sept 04
		Period	4.484917855643
		SemiMajorAxis	2.719553001322
		Eccentricity	0.083995064986
		Inclination	6.60400093601
		AscendingNode	147.671344344275
		ArgOfPericenter	88.756620020242
		MeanAnomaly	265.975038609184
	}
	UniformRotation
	{
		Period	5.69916
		Inclination	117
		AscendingNode	214
	}
	LunarLambert	0.5
	GeomAlbedo	0.045
	InfoURL	"https://en.wikipedia.org/wiki/45_Eugenia"
}

"S 2004 (45) 1" "Sol/Eugenia"
{
	Class	"minormoon"
	Mesh	"asteroid.cms"
	Texture	"asteroid.*"
	Color	[ 1.0 0.995 0.981 ]
	BlendTexture	true
	Radius	2.5
	EllipticalOrbit
	{
		Epoch	2452980.0  # 2003 Dec 06 12:00
		Period	1.793
		SemiMajorAxis	610.59
		Eccentricity	0.11
		AscendingNode	206.67
		ArgOfPericenter	95.0
		MeanAnomaly	173.0
	}
	LunarLambert	0.5
	GeomAlbedo	0.045
	InfoURL	"https://en.wikipedia.org/wiki/45_Eugenia#S/2004_(45)_1"
}

"Petit-Prince:45 Eugenia I:Eugenia I:S 1998 (45) 1" "Sol/Eugenia"
{
	Class	"minormoon"
	Mesh	"asteroid.cms"
	Texture	"asteroid.*"
	Color	[ 1.0 0.995 0.981 ]
	BlendTexture	true
	Radius	3.5
	EllipticalOrbit
	{
		Epoch	2452980.0  # 2003 Dec 06 12:00
		Period	4.716
		SemiMajorAxis	1164.42
		Eccentricity	0.002
		Inclination	8.0
		AscendingNode	201.93
		ArgOfPericenter	138.0
		MeanAnomaly	5.0
	}
	LunarLambert	0.5
	GeomAlbedo	0.045
	InfoURL	"https://en.wikipedia.org/wiki/45_Eugenia#Petit-Prince"
}

"87 Sylvia:Sylvia:A909 GA" "Sol"
{
	Class	"asteroid"
	Mesh	"sylvia.cmod"
	Texture	"asteroid.*"
	Color	[ 1.0 0.991 0.955 ]
	BlendTexture	true
	Radius	192
	EllipticalOrbit
	{
		Epoch	2458600.5  # 2019 Apr 27
		Period	6.499160684019
		SemiMajorAxis	3.482566206695
		Eccentricity	0.09306323489
		Inclination	10.877105559179
		AscendingNode	73.045341530052
		ArgOfPericenter	263.557973341693
		MeanAnomaly	92.817106207801
	}
	UniformRotation
	{
		Period	5.18364
		Inclination	29.1
		AscendingNode	161
	}
	LunarLambert	0.5
	GeomAlbedo	0.046
	InfoURL	"https://en.wikipedia.org/wiki/87_Sylvia"
}

"Remus:87 Sylvia II:Sylvia II:S 2004 (87) 1" "Sol/Sylvia"
{
	Class	"minormoon"
	Mesh	"asteroid.cms"
	Texture	"asteroid.*"
	Color	[ 1.0 0.991 0.955 ]
	BlendTexture	true
	Radius	5.3
	EllipticalOrbit
	{
		Epoch	2453249.5  # 2004 Sept 01
		Period	1.373
		SemiMajorAxis	701.64
		Eccentricity	0.093
		Inclination	2.0
		AscendingNode	194.28
		ArgOfPericenter	135.0
		MeanAnomaly	281.0
	}
	LunarLambert	0.5
	GeomAlbedo	0.046
	InfoURL	"https://en.wikipedia.org/wiki/Remus_(moon)"
}

"Romulus:87 Sylvia I:Sylvia I:S 2001 (87) 1" "Sol/Sylvia"
{
	Class	"minormoon"
	Mesh	"asteroid.cms"
	Texture	"asteroid.*"
	Color	[ 1.0 0.991 0.955 ]
	BlendTexture	true
	Radius	5.4
	EllipticalOrbit
	{
		Epoch	2453249.5  # 2004 Sept 01
		Period	3.654
		SemiMajorAxis	1351.35
		Eccentricity	0.0069
		Inclination	1.7
		AscendingNode	193.17
		ArgOfPericenter	175.0
		MeanAnomaly	167.0
	}
	LunarLambert	0.5
	GeomAlbedo	0.046
	InfoURL	"https://en.wikipedia.org/wiki/Romulus_(moon)"
}

"130 Elektra:Elektra" "Sol"
{
	Class	"asteroid"
	Mesh	"elektra.cmod"
	Texture	"asteroid.*"
	Color	[ 1.0 0.991 0.955 ]
	BlendTexture	true
	Radius	107.5
	EllipticalOrbit
	{
		Epoch	2458600.5  # 2019 Apr 27
		Period	5.524866444307
		SemiMajorAxis	3.12518492827
		Eccentricity	0.208770578436
		Inclination	22.779519800118
		AscendingNode	145.015760924544
		ArgOfPericenter	237.45248186553
		MeanAnomaly	305.903881475242
	}
	UniformRotation
	{
		Period	5.22468
		Inclination	157
	}
	LunarLambert	0.5
	GeomAlbedo	0.086
	InfoURL	"https://en.wikipedia.org/wiki/130_Elektra"
}

"S 2014 (130) 2" "Sol/Elektra"
{
	Class	"minormoon"
	Mesh	"asteroid.cms"
	Texture	"asteroid.*"
	Color	[ 1.0 0.991 0.955 ]
	BlendTexture	true
	Radius	0.8
	EllipticalOrbit
	{
		Period	0.7
		SemiMajorAxis	345
	}
	LunarLambert	0.5
	GeomAlbedo	0.086
	InfoURL	"https://en.wikipedia.org/wiki/130_Elektra#Third_satellite"
}

"S 2014 (130) 1" "Sol/Elektra"
{
	Class	"minormoon"
	Mesh	"asteroid.cms"
	Texture	"asteroid.*"
	Color	[ 1.0 0.991 0.955 ]
	BlendTexture	true
	Radius	1.0
	OrbitFrame	{ EquatorJ2000 { } }
	EllipticalOrbit
	{
		Period	1.256
		SemiMajorAxis	497.63
		Eccentricity	0.157
		Inclination	165.3
		AscendingNode	196.6
		ArgOfPericenter	312.9
		MeanAnomaly	50.6
	}
	LunarLambert	0.5
	GeomAlbedo	0.086
	InfoURL	"https://en.wikipedia.org/wiki/130_Elektra#S/2014_(130)_1"
}

"S 2003 (130) 1" "Sol/Elektra"
{
	Class	"minormoon"
	Mesh	"asteroid.cms"
	Texture	"asteroid.*"
	Color	[ 1.0 0.991 0.955 ]
	BlendTexture	true
	Radius	3.0
	OrbitFrame	{ EquatorJ2000 { } }
	EllipticalOrbit
	{
		Period	5.287
		SemiMajorAxis	1297.58
		Eccentricity	0.0835
		Inclination	160.21
		AscendingNode	176.1
		ArgOfPericenter	184.4
		MeanAnomaly	117.3
	}
	LunarLambert	0.5
	GeomAlbedo	0.086
	InfoURL	"https://en.wikipedia.org/wiki/130_Elektra#S/2003_(130)_1"
}

"216 Kleopatra:Kleopatra:A905 OA:A910 RA" "Sol"
{
	Class	"asteroid"
	Mesh	"kleopatra.cmod"
	MeshCenter	[ -3.049 2.379 1.429 ]
	Texture	"asteroid.*"
	Color	[ 1.0 0.987 0.969 ]
	BlendTexture	true
	Radius	138
	EllipticalOrbit
	{
		Epoch	2458200.5  # 2018 Mar 23
		Period	4.670567585982
		SemiMajorAxis	2.794093740995
		Eccentricity	0.250873074015
		Inclination	13.113415302806
		AscendingNode	215.358562549286
		ArgOfPericenter	180.111284490109
		MeanAnomaly	346.241182618875
	}
	UniformRotation
	{
		Period	5.385280
		Inclination	63
		AscendingNode	162
	}
	LunarLambert	0.5
	GeomAlbedo	0.1164
	InfoURL	"https://en.wikipedia.org/wiki/216_Kleopatra"
}

